#cP2016  7 16  0  0  0.00000000      96 ORBIT IGb08 HLM  IGS
## 1905 518400.00000000   900.00000000 57585 0.0000000000000
+   32   G01G02G03G04G05G06G07G08G09G10G11G12G13G14G15G16G17
+        G18G19G20G21G22G23G24G25G26G27G28G29G30G31G32  0  0
+          0  0  0  0  0  0  0  0  0  0  0  0  0  0  0  0  0
+          0  0  0  0  0  0  0  0  0  0  0  0  0  0  0  0  0
+          0  0  0  0  0  0  0  0  0  0  0  0  0  0  0  0  0
++         2  2  2  0  2  2  2  2  2  1  2  2  2  2  2  2  2
++         2  2  2  2  2  2  2  2  2  2  2  2  2  2  2  0  0
++         0  0  0  0  0  0  0  0  0  0  0  0  0  0  0  0  0
++         0  0  0  0  0  0  0  0  0  0  0  0  0  0  0  0  0
++         0  0  0  0  0  0  0  0  0  0  0  0  0  0  0  0  0
%c G  cc GPS ccc cccc cccc cccc cccc ccccc ccccc ccccc ccccc
%c cc cc ccc ccc cccc cccc cccc cccc ccccc ccccc ccccc ccccc
%f  1.2500000  1.025000000  0.00000000000  0.000000000000000
%f  0.0000000  0.000000000  0.00000000000  0.000000000000000
%i    0    0    0    0      0      0      0      0         0
%i    0    0    0    0      0      0      0      0         0
/* FINAL ORBIT COMBINATION FROM WEIGHTED AVERAGE OF:        
/* cod emr esa gfz grg jpl mit ngs sio                      
/* REFERENCED TO IGS TIME (IGST) AND TO WEIGHTED MEAN POLE: 
/* PCV:IGS08_1904 OL/AL:FES2004  NONE     Y  ORB:CMB CLK:CMB
*  2016  7 16 23 15  0.00000000
PG01  16894.855625  13860.165705 -15350.365274     27.149911  6  6  4 111       
PG02   5398.923525 -15067.234681  21607.757403    575.710241  4  4  5 129       
PG03  13637.960083  21427.709304   7775.695510    -73.552638  6  5  7 110       
PG04 -10435.216465  12362.194404  20795.837194 999999.999999
PG05  -1568.926216 -24425.655987   9992.738547   -104.945661  5  7  7  77       
PG06  19880.726844  -7711.754002  15848.620742    219.561472  8  3  6 124       
PG07  26058.062601   6106.104003   1318.184091    441.509601  8  6  3  61       
PG08    -82.140659  19601.621399 -17857.633746    -43.018930  7  6  7 112       
PG09  16592.339871   2746.775488  20548.465383    168.785197  6  6  2 103       
PG10 -13832.704590   6475.677208 -21706.409797    -66.762252  4  5  4 104       
PG11  11794.589722  13824.707865 -19942.106759   -656.137626  5  5  7 116       
PG12 -10853.873352 -23775.079461   5188.996220    385.444796  8  6  3 119       
PG13   9208.741912 -21235.811852 -13222.416281    -31.604807  7  5  5 104       
PG14 -19417.829874  17845.050296  -2065.055147    -24.944012  8  8  5  81       
PG15  -3446.079993 -18659.374252 -18573.576395   -319.656313  5  4  6 104       
PG16    124.456069  24342.865816  10038.624179     -4.343226  6  6  6  95       
PG17  20748.264845 -13314.400248  -9303.931802   -203.901013 10  7  7  85       
PG18 -17610.521870  -7026.262763 -18145.982484    537.209882  8  5  6  94       
PG19  19524.427920 -18273.374513  -1071.412432   -524.908317  8  7  6 110       
PG20 -13906.659346 -22231.313475  -4247.698647    424.650843  9  6  6 106       
PG21 -26413.209669  -3644.200166   -255.075812   -528.500559  9  7  8 117       
PG22   9911.981308  24572.547341    -41.680859    295.113373  7  6  7 121       
PG23  10724.133693  11483.893468  21591.753033   -182.432358  6  5  5 111       
PG24 -13529.599002 -14764.343668 -17600.595475    -20.254571  8  4  5 113       
PG25 -16178.897054 -14649.943209  15139.204527   -209.705909  8  6  8 123       
PG26  -6444.038135  18498.546191  17911.069934   -425.019516  6  8  5  95       
PG27 -10243.238149  22506.586104  -9497.820856    115.512017  6  6  7  94       
PG28  13898.189881  -3393.813515 -21752.937172    537.701334  8  5  6 119       
PG29 -14251.637451  -6048.363743  21577.519050    655.354022  8  6  2 116       
PG30  25323.080187    176.874688  -8195.758830    140.079701  9  5  5 105       
PG31 -17321.330696   9114.839281  18222.519587    258.508525  7  5  5 105       
PG32 -20229.979329  14734.554638  -8849.894095    -50.487763  4  5  5  98       
*  2016  7 16 23 30  0.00000000
PG01  15052.148820  13736.372373 -17249.928290     27.151067  6  7  5 111       
PG02   7739.474018 -14763.011123  21053.869661    575.706566  5  4  6 126       
PG03  13681.454296  22200.969673   5050.936892    -73.555382  6  6  7 108       
PG04 -11362.429949  10075.736743  21544.841090 999999.999999
PG05   -819.801821 -23329.455097  12412.324085   -104.943299  5  7  7   1       
PG06  21530.793770  -7302.831466  13746.066898    219.566214  8  5  6 120       
PG07  25736.244670   6261.347851   4138.069659    441.507679  8  6  4  76       
PG08  -1397.351946  21049.753230 -16066.423591    -43.020220  7  6  8 120       
PG09  15184.634627   4687.982606  21271.052840    168.791681  7  6  3  99       
PG10 -14769.786419   4172.944683 -21660.183662    -66.768650  4  5  5 102       
PG11   9642.407184  14446.976343 -20663.417155   -656.138809  5  6  6 107       
PG12 -10851.266072 -24243.170814   2330.457101    385.445746  9  7  4 110       
PG13  10287.890704 -22073.808869 -10820.808002    -31.606780  7  5  6  91       
PG14 -19319.523519  17353.040683  -4898.496166    -24.945759  8  9  6  85       
PG15  -2125.881448 -20222.191559 -17031.057097   -319.657695  5  4  5 101       
PG16   -444.418741  23143.107847  12561.099239     -4.341190  7  7  6 109       
PG17  20082.774075 -12227.581122 -11839.666959   -203.901088 10  7  7  97       
PG18 -18276.788671  -9016.895677 -16609.922986    537.213376  9  5  6  91       
PG19  19485.945039 -17959.492119  -3914.203715   -524.907941  9  7  7 117       
PG20 -13734.913665 -22670.815777  -1486.234729    424.652456  9  5  6  96       
PG21 -26329.605359  -3940.017334   2536.496601   -528.502205  9  7  8 130       
PG22   9494.518016  24549.110913  -2819.689620    295.105260  6  5  6 124       
PG23   9195.444391  13353.380748  21174.619517   -182.433666  7  5  6 111       
PG24 -11441.543954 -14664.419954 -19088.903049    -20.255550  9  4  4 102       
PG25 -16642.106839 -16205.049035  12924.832330   -209.712187  9  6  9 125       
PG26  -7383.576596  16575.673080  19375.064359   -425.028412  6  8  5 105       
PG27 -10987.673116  23108.503779  -6818.513933    115.515973  6  6  7 106       
PG28  14669.186877   -905.094408 -21501.876510    537.703593  8  5  7 124       
PG29 -12634.639222  -7938.347373  21971.886267    655.353395  8  7    114       
PG30  26035.854485    590.070558  -5510.181216    140.081950 10  5  6  98       
PG31 -19224.271914   8663.718896  16470.755843    258.506838  7  4  5 108       
PG32 -19704.334688  13674.787697 -11374.376795    -50.497415  5  5  5  89       
*  2016  7 16 23 45  0.00000000
PG01  13007.954753  13694.111956 -18857.221045     27.152238  6  7  5 117       
PG02  10016.301854 -14579.665834  20149.424531    575.702975  6  5  6 126       
PG03  13630.919260  22687.728669   2239.268387    -73.558134  7  6  8 115       
PG04 -12439.002379   7786.735591  21914.615803 999999.999999
PG05     97.204999 -22035.569213  14615.341422   -104.940632  6  8  6  56       
PG06  22949.518117  -7001.296902  11407.153609    219.570939  9  6  7 123       
PG07  25113.176268   6400.695267   6888.692480    441.505439  9  6  4  70       
PG08  -2511.536702  22383.670903 -13997.390231    -43.021241  7  6  8 115       
PG09  13843.468112   6749.183043  21627.294690    168.798164  7  6  3 105       
PG10 -15813.259221   1946.328263 -21240.688183    -66.775051  5  5  5  95       
PG11   7462.448760  15179.005844 -21045.986251   -656.140208  5  6  6 111       
PG12 -10752.166401 -24409.269289   -567.747714    385.446488  9  7  5 104       
PG13  11135.820389 -22756.849565  -8234.832530    -31.609321  8  5  7 101       
PG14 -19047.655537  16607.785534  -7646.319613    -24.947349  8  9  6  92       
PG15   -976.887234 -21684.421200 -15194.269634   -319.659238  5  4  6 110       
PG16  -1179.767553  21719.597129  14861.850222     -4.339045  7  7  6 107       
PG17  19308.139640 -10882.356047 -14166.128440   -203.900709 10  7  8  90       
PG18 -18944.967577 -10798.502460 -14779.165008    537.216824 10  6  7  94       
PG19  19261.110723 -17403.857994  -6691.342525   -524.907900  9  7  8 104       
PG20 -13425.807657 -22848.245569   1300.829766    424.654984  9  6  6  82       
PG21 -25952.384342  -4216.602734   5285.368749   -528.502607 10  8  8 133       
PG22   8932.665087  24268.351059  -5548.658280    295.097011  5  5  6 120       
PG23   7797.067764  15245.409469  20397.571028   -182.435129  7  5  6 113       
PG24  -9200.902130 -14662.029606 -20252.110124    -20.256278  9  5  4 117       
PG25 -17077.670021 -17492.276273  10488.561758   -209.718535 10  7 10 128       
PG26  -8485.515983  14572.231107  20505.110566   -425.037199  7  8  5 100       
PG27 -11523.545567  23492.175784  -4020.798798    115.519907  6  7  7 107       
PG28  15556.130472   1487.314017 -20858.515562    537.706319  8  5  7 114       
PG29 -11109.582626  -9932.223992  21988.174326    655.352913  8  7  2 119       
PG30  26463.831271    920.728862  -2730.392357    140.084120  9  4  6  91       
PG31 -20936.755597   8341.465737  14441.725093    258.505627  8  5  5 100       
PG32 -19079.266939  12362.181890 -13702.763948    -50.507070  6  6  5 100       
EOF
